{"fetched_at":"2026-07-10T07:58:44.755Z","source":"https://celestrak.org/NORAD/elements/gp.php?GROUP=spire&FORMAT=JSON","constellation":"spire","records":[{"OBJECT_NAME":"LEMUR-1","OBJECT_ID":"2014-033AL","EPOCH":"2026-07-08T22:03:32.487264","CLASSIFICATION_TYPE":"U","MEAN_MOTION":14.85324329,"ECCENTRICITY":0.0048317,"INCLINATION":97.7901,"RA_OF_ASC_NODE":339.2449,"ARG_OF_PERICENTER":8.5943,"MEAN_ANOMALY":351.6089,"EPHEMERIS_TYPE":0,"NORAD_CAT_ID":40044,"ELEMENT_SET_NO":999,"REV_AT_EPOCH":64869,"BSTAR":0.00014819226,"MEAN_MOTION_DOT":0.00001245,"MEAN_MOTION_DDOT":0},{"OBJECT_NAME":"LEMUR-2-GREENBERG","OBJECT_ID":"2017-042N","EPOCH":"2026-07-09T05:37:06.468096","CLASSIFICATION_TYPE":"U","MEAN_MOTION":15.3202606,"ECCENTRICITY":0.000714,"INCLINATION":97.3832,"RA_OF_ASC_NODE":10.7689,"ARG_OF_PERICENTER":284.7697,"MEAN_ANOMALY":75.2753,"EPHEMERIS_TYPE":0,"NORAD_CAT_ID":42837,"ELEMENT_SET_NO":999,"REV_AT_EPOCH":49176,"BSTAR":0.00041638677,"MEAN_MOTION_DOT":0.00012814,"MEAN_MOTION_DDOT":0},{"OBJECT_NAME":"LEMUR-2-ANDIS","OBJECT_ID":"2017-042P","EPOCH":"2026-07-09T17:35:06.455040","CLASSIFICATION_TYPE":"U","MEAN_MOTION":15.35772741,"ECCENTRICITY":0.0007099,"INCLINATION":97.3683,"RA_OF_ASC_NODE":11.5304,"ARG_OF_PERICENTER":281.4571,"MEAN_ANOMALY":78.5875,"EPHEMERIS_TYPE":0,"NORAD_CAT_ID":42838,"ELEMENT_SET_NO":999,"REV_AT_EPOCH":49191,"BSTAR":0.00045347,"MEAN_MOTION_DOT":0.00015725,"MEAN_MOTION_DDOT":0},{"OBJECT_NAME":"LEMUR-2-MONSON","OBJECT_ID":"2017-042Q","EPOCH":"2026-07-09T17:58:54.052608","CLASSIFICATION_TYPE":"U","MEAN_MOTION":15.28660176,"ECCENTRICITY":0.0005126,"INCLINATION":97.4092,"RA_OF_ASC_NODE":11.2195,"ARG_OF_PERICENTER":270.2225,"MEAN_ANOMALY":89.8427,"EPHEMERIS_TYPE":0,"NORAD_CAT_ID":42839,"ELEMENT_SET_NO":999,"REV_AT_EPOCH":49161,"BSTAR":0.00034886,"MEAN_MOTION_DOT":0.00009654,"MEAN_MOTION_DDOT":0},{"OBJECT_NAME":"LEMUR-2-FURIAUS","OBJECT_ID":"2017-042R","EPOCH":"2026-07-09T18:22:55.841376","CLASSIFICATION_TYPE":"U","MEAN_MOTION":15.3101131,"ECCENTRICITY":0.0006413,"INCLINATION":97.378,"RA_OF_ASC_NODE":9.2029,"ARG_OF_PERICENTER":351.066,"MEAN_ANOMALY":9.0465,"EPHEMERIS_TYPE":0,"NORAD_CAT_ID":42840,"ELEMENT_SET_NO":999,"REV_AT_EPOCH":49166,"BSTAR":0.00043013,"MEAN_MOTION_DOT":0.00012826,"MEAN_MOTION_DDOT":0},{"OBJECT_NAME":"LEMUR-2-PETERG","OBJECT_ID":"2017-042S","EPOCH":"2026-07-08T22:45:16.101792","CLASSIFICATION_TYPE":"U","MEAN_MOTION":15.34864591,"ECCENTRICITY":0.00029308,"INCLINATION":97.3999,"RA_OF_ASC_NODE":15.0281,"ARG_OF_PERICENTER":250.3592,"MEAN_ANOMALY":109.7335,"EPHEMERIS_TYPE":0,"NORAD_CAT_ID":42841,"ELEMENT_SET_NO":999,"REV_AT_EPOCH":49177,"BSTAR":0.00045426881,"MEAN_MOTION_DOT":0.00015292,"MEAN_MOTION_DDOT":0},{"OBJECT_NAME":"LEMUR-2-DEMBITZ","OBJECT_ID":"2017-042T","EPOCH":"2026-07-08T17:45:22.592448","CLASSIFICATION_TYPE":"U","MEAN_MOTION":15.30969559,"ECCENTRICITY":0.00051261,"INCLINATION":97.3834,"RA_OF_ASC_NODE":11.2222,"ARG_OF_PERICENTER":303.4427,"MEAN_ANOMALY":56.6324,"EPHEMERIS_TYPE":0,"NORAD_CAT_ID":42842,"ELEMENT_SET_NO":999,"REV_AT_EPOCH":49164,"BSTAR":0.00039206163,"MEAN_MOTION_DOT":0.00011664,"MEAN_MOTION_DDOT":0},{"OBJECT_NAME":"LEMUR-2-ZACHARY","OBJECT_ID":"2017-042W","EPOCH":"2026-07-09T19:57:23.285664","CLASSIFICATION_TYPE":"U","MEAN_MOTION":15.52354875,"ECCENTRICITY":0.000238,"INCLINATION":97.3589,"RA_OF_ASC_NODE":22.9819,"ARG_OF_PERICENTER":275.3054,"MEAN_ANOMALY":84.7927,"EPHEMERIS_TYPE":0,"NORAD_CAT_ID":42845,"ELEMENT_SET_NO":999,"REV_AT_EPOCH":49271,"BSTAR":0.00066596,"MEAN_MOTION_DOT":0.00040627,"MEAN_MOTION_DDOT":0},{"OBJECT_NAME":"LEMUR-2-AMANDA-SVANTE","OBJECT_ID":"2021-034B","EPOCH":"2026-07-09T04:42:22.404096","CLASSIFICATION_TYPE":"U","MEAN_MOTION":15.35697209,"ECCENTRICITY":0.00042461,"INCLINATION":97.575,"RA_OF_ASC_NODE":269.0822,"ARG_OF_PERICENTER":157.2695,"MEAN_ANOMALY":202.8737,"EPHEMERIS_TYPE":0,"NORAD_CAT_ID":48269,"ELEMENT_SET_NO":999,"REV_AT_EPOCH":28443,"BSTAR":0.00073787317,"MEAN_MOTION_DOT":0.00025594,"MEAN_MOTION_DDOT":0},{"OBJECT_NAME":"LEMUR-2-SPECIAL-K","OBJECT_ID":"2021-034F","EPOCH":"2026-07-08T18:48:22.999392","CLASSIFICATION_TYPE":"U","MEAN_MOTION":15.72370976,"ECCENTRICITY":0.00058642,"INCLINATION":97.5632,"RA_OF_ASC_NODE":278.3223,"ARG_OF_PERICENTER":219.6394,"MEAN_ANOMALY":140.4441,"EPHEMERIS_TYPE":0,"NORAD_CAT_ID":48273,"ELEMENT_SET_NO":999,"REV_AT_EPOCH":28507,"BSTAR":0.0014929865,"MEAN_MOTION_DOT":0.00202245,"MEAN_MOTION_DDOT":0},{"OBJECT_NAME":"LEMUR-2-EMBRIONOVIS","OBJECT_ID":"2023-084AQ","EPOCH":"2026-07-09T07:48:10.613376","CLASSIFICATION_TYPE":"U","MEAN_MOTION":15.38125065,"ECCENTRICITY":0.00078489,"INCLINATION":97.6309,"RA_OF_ASC_NODE":335.3863,"ARG_OF_PERICENTER":229.1156,"MEAN_ANOMALY":130.9409,"EPHEMERIS_TYPE":0,"NORAD_CAT_ID":56970,"ELEMENT_SET_NO":999,"REV_AT_EPOCH":17108,"BSTAR":0.00028505246,"MEAN_MOTION_DOT":0.00010624,"MEAN_MOTION_DDOT":0},{"OBJECT_NAME":"LEMUR-2-DEVERILL-M-T","OBJECT_ID":"2023-100F","EPOCH":"2026-07-07T16:45:47.686176","CLASSIFICATION_TYPE":"U","MEAN_MOTION":15.40821036,"ECCENTRICITY":0.00047974,"INCLINATION":99.446,"RA_OF_ASC_NODE":233.3957,"ARG_OF_PERICENTER":329.3522,"MEAN_ANOMALY":30.7437,"EPHEMERIS_TYPE":0,"NORAD_CAT_ID":57391,"ELEMENT_SET_NO":999,"REV_AT_EPOCH":16440,"BSTAR":0.0003956978,"MEAN_MOTION_DOT":0.00016121,"MEAN_MOTION_DDOT":0},{"OBJECT_NAME":"LEMUR-2-BASS","OBJECT_ID":"2023-174D","EPOCH":"2026-07-09T20:04:22.800000","CLASSIFICATION_TYPE":"U","MEAN_MOTION":15.43870414,"ECCENTRICITY":0.0007911,"INCLINATION":97.3844,"RA_OF_ASC_NODE":275.876,"ARG_OF_PERICENTER":94.1413,"MEAN_ANOMALY":266.0739,"EPHEMERIS_TYPE":0,"NORAD_CAT_ID":58259,"ELEMENT_SET_NO":999,"REV_AT_EPOCH":14885,"BSTAR":0.00030063,"MEAN_MOTION_DOT":0.00013575,"MEAN_MOTION_DDOT":0},{"OBJECT_NAME":"LEMUR-2-JK0903EM1407","OBJECT_ID":"2023-174CJ","EPOCH":"2026-07-09T15:24:23.988384","CLASSIFICATION_TYPE":"U","MEAN_MOTION":15.52862811,"ECCENTRICITY":0.0004082,"INCLINATION":97.3917,"RA_OF_ASC_NODE":281.7629,"ARG_OF_PERICENTER":51.7216,"MEAN_ANOMALY":308.4404,"EPHEMERIS_TYPE":0,"NORAD_CAT_ID":58336,"ELEMENT_SET_NO":999,"REV_AT_EPOCH":14921,"BSTAR":0.00031633,"MEAN_MOTION_DOT":0.00019554,"MEAN_MOTION_DDOT":0},{"OBJECT_NAME":"LEMUR-2-MJR092620","OBJECT_ID":"2023-174CN","EPOCH":"2026-07-09T01:06:29.265120","CLASSIFICATION_TYPE":"U","MEAN_MOTION":15.45702331,"ECCENTRICITY":0.00058914,"INCLINATION":97.3971,"RA_OF_ASC_NODE":280.4893,"ARG_OF_PERICENTER":50.7251,"MEAN_ANOMALY":309.4519,"EPHEMERIS_TYPE":0,"NORAD_CAT_ID":58340,"ELEMENT_SET_NO":999,"REV_AT_EPOCH":14902,"BSTAR":0.0002952654,"MEAN_MOTION_DOT":0.00014182,"MEAN_MOTION_DDOT":0},{"OBJECT_NAME":"LEMUR-2-NIMBUS2000","OBJECT_ID":"2024-022A","EPOCH":"2026-07-08T15:29:08.176992","CLASSIFICATION_TYPE":"U","MEAN_MOTION":15.40918823,"ECCENTRICITY":0.00094074,"INCLINATION":97.4096,"RA_OF_ASC_NODE":39.9264,"ARG_OF_PERICENTER":49.8701,"MEAN_ANOMALY":310.3369,"EPHEMERIS_TYPE":0,"NORAD_CAT_ID":58899,"ELEMENT_SET_NO":999,"REV_AT_EPOCH":13557,"BSTAR":0.00039954574,"MEAN_MOTION_DOT":0.00016384,"MEAN_MOTION_DDOT":0}]}
